JY1SAT (JO-97)          
1 43803U 18099AX  26068.68634132  .00017774  00000+0  60804-3 0  9996
2 43803  97.4249 131.3625 0004723 256.6795 103.3919 15.30302628398390
STARLINK-32159          
1 60293U 24132R   26068.35725777 -.00003029  00000+0 -90282-4 0  9997
2 60293  53.1610  53.6754 0001340  85.2183 274.8971 15.30169192 91514
